OBJECT_NAME,OBJECT_ID,EPOCH,MEAN_MOTION,ECCENTRICITY,INCLINATION,RA_OF_ASC_NODE,ARG_OF_PERICENTER,MEAN_ANOMALY,EPHEMERIS_TYPE,CLASSIFICATION_TYPE,NORAD_CAT_ID,ELEMENT_SET_NO,REV_AT_EPOCH,BSTAR,MEAN_MOTION_DOT,MEAN_MOTION_DDOT
BEIDOU-2 IGSO-5 (C10),2011-073A,2026-06-24T15:46:07.226112,1.00272136,.01142233,47.6633,271.4526,222.0346,107.5350,0,U,37948,999,5320,0,-.196E-5,0
LUCH 5A (SDCM/PRN 140),2011-074B,2026-06-26T11:53:38.876640,1.00272324,.00026967,8.7772,73.6725,31.2585,155.0259,0,U,37951,999,5314,0,-.47E-6,0
BEIDOU-2 G5 (C05),2012-008A,2026-06-26T04:16:45.653088,1.00275587,.00086615,3.5966,69.6505,276.0937,51.4711,0,U,38091,999,5245,0,.64E-6,0
BEIDOU-2 M3 (C11),2012-018A,2026-06-25T18:43:13.185408,1.86229866,.0020315,55.7497,304.5848,273.3590,86.3983,0,U,38250,999,9610,0,-.106E-5,0
BEIDOU-2 M4 (C12),2012-018B,2026-06-26T05:58:57.767808,1.86229631,.0011702,55.6492,303.7834,273.7859,86.0713,0,U,38251,999,9611,0,-.103E-5,0
SES-5 (EGNOS/PRN 136),2012-036A,2026-06-26T17:42:36.129024,1.00261199,.000263,0.0452,318.0989,150.5218,76.8565,0,U,38652,999,4455,0,.43E-6,0
BEIDOU-2 M6 (C14),2012-050B,2026-06-25T23:00:55.857312,1.86231118,.00135352,56.5518,62.6042,358.1579,1.8786,0,U,38775,999,9347,0,-.89E-6,0
GSAT-10 (GAGAN/PRN 128),2012-051B,2026-06-26T16:22:09.430176,1.00272048,.0008169,0.0594,259.0415,191.7626,152.5629,0,U,38779,999,5019,0,-.154E-5,0
GPS BIIF-3  (PRN 24),2012-053A,2026-06-26T06:58:09.166368,2.00567692,.0180813,53.5875,143.2264,65.8944,295.9517,0,U,38833,999,9962,0,.28E-6,0
GSAT0103 (GALILEO-FM3),2012-055A,2026-06-26T06:35:10.312224,1.70473541,.0004643,55.8119,101.2962,306.5520,53.3783,0,U,38857,999,8516,0,-.38E-6,0
BEIDOU-2 G6 (C02),2012-059A,2026-06-26T18:05:03.371136,1.00271369,.0009722,4.4461,73.4247,328.6677,228.0807,0,U,38953,999,5000,0,-.168E-5,0
LUCH 5B (SDCM/PRN 125),2012-061A,2026-06-26T10:45:50.629824,1.00272700,.0002511,10.5037,49.7912,136.3934,233.5935,0,U,38977,999,4970,0,-.136E-5,0
COSMOS 2485 (747),2013-019A,2026-06-26T07:05:04.667424,2.13103278,.0022912,65.4249,73.2985,233.1072,126.7203,0,U,39155,999,10247,0,-.6E-6,0
GPS BIIF-4  (PRN 27),2013-023A,2026-06-25T15:48:58.301568,2.00563550,.01414754,54.4973,268.6283,51.0602,310.2306,0,U,39166,999,9605,0,-.46E-6,0
IRNSS-1A,2013-034A,2026-06-25T17:59:54.148128,1.00277689,.00184067,35.7396,63.7472,178.4200,356.6391,0,U,39199,999,4745,0,.48E-6,0
GPS BIIF-5  (PRN 30),2014-008A,2026-06-26T03:49:25.874400,2.00560425,.00842153,53.6559,148.9537,231.3935,127.8246,0,U,39533,999,8986,0,.41E-6,0
ASTRA 5B (EGNOS/PRN 123),2014-011B,2026-06-26T14:22:34.420800,1.00272427,.00022139,0.0533,324.6786,114.4875,74.6662,0,U,39617,999,4476,0,.148E-5,0
COSMOS 2492 (754),2014-012A,2026-06-23T21:47:10.853664,2.13103141,.00102141,65.2933,313.7069,323.0851,36.8355,0,U,39620,999,9538,0,-.82E-6,0
IRNSS-1B,2014-017A,2026-06-25T17:59:39.172416,1.00269592,.00236918,28.9107,240.2561,197.5967,161.0226,0,U,39635,999,4487,0,.139E-5,0
LUCH 5V (SDCM/PRN 141),2014-023A,2026-06-26T14:42:58.601664,1.00272013,.00024669,5.1564,69.6550,48.8969,111.6854,0,U,39727,999,4445,0,-.262E-5,0
GPS BIIF-6  (PRN 06),2014-026A,2026-06-25T22:28:21.538560,2.00560487,.00381185,56.4938,331.1769,326.3471,33.4038,0,U,39741,999,8871,0,-.104E-5,0
COSMOS 2500 (755),2014-032A,2026-06-25T22:54:23.844096,2.13105954,.0007692,65.2269,313.3837,185.3330,174.6480,0,U,40001,999,9364,0,-.85E-6,0
GPS BIIF-7  (PRN 09),2014-045A,2026-06-26T00:40:32.827008,2.00559107,.00336861,55.3587,88.1127,118.2750,242.0678,0,U,40105,999,8625,0,-.68E-6,0
GSAT0201 (GALILEO 5),2014-050A,2026-06-24T10:10:10.322112,1.85520133,.16757066,48.8673,273.1394,179.6719,180.5031,0,U,40128,999,7845,0,-.85E-6,0
GSAT0202 (GALILEO 6),2014-050B,2026-06-26T07:06:31.788864,1.85520779,.16771001,48.8820,272.1482,180.4759,179.3977,0,U,40129,999,8065,0,-.65E-6,0
IRNSS-1C,2014-061A,2026-06-25T16:24:56.461248,1.00267985,.0022592,6.5386,88.7700,3.4967,150.6688,0,U,40269,999,4277,0,-.155E-5,0
GPS BIIF-8  (PRN 03),2014-068A,2026-06-25T21:32:14.332704,2.00576883,.0067228,56.9936,30.6191,70.9208,289.8621,0,U,40294,999,8538,0,-.85E-6,0
COSMOS 2501 (702K),2014-075A,2026-06-26T05:11:57.010848,2.13109644,.00222379,63.6151,190.0588,210.4369,149.4832,0,U,40315,999,9004,0,.105E-5,0
GPS BIIF-9  (PRN 26),2015-013A,2026-06-26T00:53:47.328576,2.00550980,.01097479,53.1674,203.8114,40.1916,320.6840,0,U,40534,999,8200,0,.87E-6,0
GSAT0203 (GALILEO 7),2015-017A,2026-06-26T14:21:18.819072,1.70476365,.0002131,56.7831,341.3391,269.4919,90.4779,0,U,40544,999,6936,0,-.96E-6,0
GSAT0204 (GALILEO 8),2015-017B,2026-06-23T22:06:17.261568,1.70475870,.00020932,56.7909,341.4306,241.0442,118.9316,0,U,40545,999,3236,0,-.99E-6,0
